ORBCOMM FM33 [-]        
1 25983U 99065D   23283.35156757  .00003306  00000+0  11556-2 0  9994
2 25983  45.0302  38.8577 0010060 208.4232 186.6455 14.36819452247482
ORBCOMM FM36 [-]        
1 25984U 99065E   23283.27667392  .00002071  00000+0  77444-3 0  9995
2 25984  45.0384 121.0399 0003882  88.9110 271.2182 14.34690808246465
ORBCOMM FM35 [+]        
1 25985U 99065F   23283.26623586  .00002017  00000+0  76004-3 0  9993
2 25985  45.0383 123.1629 0002860 192.0674 168.0105 14.34396847246465
ORBCOMM FM34 [-]        
1 25986U 99065G   23282.74261679  .00001879  00000+0  71233-3 0  9991
2 25986  45.0385 126.1011 0003733 130.3775 229.7398 14.34341040246311
ORBCOMM FM38 [-]        
1 33060U 08031A   23283.17085542  .00004172  00000+0  62632-3 0  9999
2 33060  48.4429 358.2487 0006339 280.3452  79.6747 14.76160262823588
ORBCOMM FM41 [-]        
1 33061U 08031B   23283.53401199  .00004158  00000+0  62763-3 0  9999
2 33061  48.4466   2.6775 0005495 269.7062 174.9793 14.75929854823590
ORBCOMM FM29 [-]        
1 33062U 08031C   23283.44343353  .00004496  00000+0  67815-3 0  9995
2 33062  48.4417  11.0830 0007371 267.1791 191.0608 14.75808552823449
ORBCOMM FM39 [-]        
1 33063U 08031D   23283.39419701  .00004220  00000+0  65077-3 0  9994
2 33063  48.4426  30.3610 0008232 245.0040 115.0018 14.74965786823183
